{
    "links": {
        "self": "http://www.neowsapp.com/rest/v1/neo/3825437?api_key=iIulBulltgU6a56xZRHN4H3l9WmuAYTsLGpBGhQ2"
    },
    "id": "3825437",
    "neo_reference_id": "3825437",
    "name": "(2018 MH5)",
    "designation": "2018 MH5",
    "nasa_jpl_url": "http://ssd.jpl.nasa.gov/sbdb.cgi?sstr=3825437",
    "absolute_magnitude_h": 24.3,
    "estimated_diameter": {
        "kilometers": {
            "estimated_diameter_min": 0.0366906138,
            "estimated_diameter_max": 0.0820427065
        },
        "meters": {
            "estimated_diameter_min": 36.6906137531,
            "estimated_diameter_max": 82.0427064882
        },
        "miles": {
            "estimated_diameter_min": 0.0227984834,
            "estimated_diameter_max": 0.0509789586
        },
        "feet": {
            "estimated_diameter_min": 120.3760332259,
            "estimated_diameter_max": 269.1689931548
        }
    },
    "is_potentially_hazardous_asteroid": false,
    "close_approach_data": [
        {
            "close_approach_date": "2018-06-11",
            "close_approach_date_full": "2018-Jun-11 08:49",
            "epoch_date_close_approach": 1528706940000,
            "relative_velocity": {
                "kilometers_per_second": "15.231312962",
                "kilometers_per_hour": "54832.7266632655",
                "miles_per_hour": "34070.9239647385"
            },
            "miss_distance": {
                "astronomical": "0.0601632573",
                "lunar": "23.4035070897",
                "kilometers": "9000295.144341951",
                "miles": "5592524.0739068838"
            },
            "orbiting_body": "Earth"
        }
    ],
    "orbital_data": {
        "orbit_id": "4",
        "orbit_determination_date": "2018-06-23 06:53:18",
        "first_observation_date": "2018-06-16",
        "last_observation_date": "2018-06-23",
        "data_arc_in_days": 7,
        "observations_used": 28,
        "orbit_uncertainty": "9",
        "minimum_orbit_intersection": ".0418588",
        "jupiter_tisserand_invariant": "3.324",
        "epoch_osculation": "2458287.5",
        "eccentricity": ".6244874609202381",
        "semi_major_axis": "2.265102598987594",
        "inclination": "4.941407493116095",
        "ascending_node_longitude": "104.1113776994115",
        "orbital_period": "1245.174575375239",
        "perihelion_distance": ".8505744282219992",
        "perihelion_argument": "96.22587704432412",
        "aphelion_distance": "3.67963076975319",
        "perihelion_time": "2458239.795105703979",
        "mean_anomaly": "13.79225233649841",
        "mean_motion": ".2891160863058197",
        "equinox": "J2000",
        "orbit_class": {
            "orbit_class_type": "APO",
            "orbit_class_description": "Near-Earth asteroid orbits which cross the Earth’s orbit similar to that of 1862 Apollo",
            "orbit_class_range": "a (semi-major axis) > 1.0 AU; q (perihelion) < 1.017 AU"
        }
    },
    "is_sentry_object": false
}